satname,norad_id,inclination_deg,eccentricity,mean_motion_rev_per_day,perigee_km,apogee_km,l1,l2
STARLINK-1316,45415,53.1564,0.0006558,15.37406157,449.3024972490175,458.2632433509034,1 45415U 20019BH  26148.23289441  .00055613  00000+0  14932-2 0  9995,2 45415  53.1564 117.7480 0006558  40.1019 320.0468 15.37406157342205
STARLINK-1286,45417,53.0454,0.0001253,15.62790796,378.7531370373281,380.44662589982545,1 45417U 20019BK  26148.57443743  .00065508  00000+0  71445-3 0  9998,2 45417  53.0454 104.6399 0001253 125.8714 234.2416 15.62790796342659
STARLINK-1308,45419,53.0454,0.0008036,15.64655508,368.8034932975488,379.65589705003276,1 45419U 20019BM  26148.35731271  .00064636  00000+0  65439-3 0  9999,2 45419  53.0454 125.2445 0008036  14.5474 345.5770 15.64655508342095
STARLINK-1329,45531,53.0429,0.0004459,15.71587528,351.3573134595372,357.36135368982013,1 45531U 20025A   26148.14223330  .00076334  00000+0  58145-3 0  9994,2 45531  53.0429  50.5875 0004459 104.4659 255.6853 15.71587528337909
STARLINK-1338,45532,53.0452,0.0004265,15.66608378,365.73955511716576,371.4945363181632,1 45532U 20025B   26148.13186792  .00057861  00000+0  54346-3 0  9997,2 45532  53.0452  56.8716 0004265  73.8472 286.3013 15.66608378337816
STARLINK-1350,45535,53.0733,0.0001613,15.37966139,451.0226885411548,453.2261308719271,1 45535U 20025E   26147.92145764  .00013756  00000+0  37269-3 0  9990,2 45535  53.0733  20.4855 0001613  81.1089 279.0096 15.37966139338341
STARLINK-1362,45538,53.1577,0.0003446,15.35999334,455.5980907361518,460.3095245207696,1 45538U 20025H   26148.85122586 -.00108237  00000+0 -30760-2 0  9992,2 45538  53.1577  87.1138 0003446  98.9271 261.2122 15.35999334337477
STARLINK-1368,45540,53.1578,0.000474,15.36203616,454.1077391752424,460.5877787267282,1 45540U 20025K   26148.21424566  .00054818  00000+0  15307-2 0  9991,2 45540  53.1578  90.4699 0004740  86.5108 273.6438 15.36203616337367
STARLINK-1371,45542,53.0446,0.0005975,15.59927295,383.8246180469023,391.90999319211824,1 45542U 20025M   26148.18923759  .00102307  00000+0  12359-2 0  9998,2 45542  53.0446  65.7932 0005975  86.7691 273.4004 15.59927295337691
STARLINK-1372,45543,53.1578,0.0004086,15.36803535,452.77648778788716,458.3609921185771,1 45543U 20025N   26148.82677959  .00061135  00000+0  16721-2 0  9998,2 45543  53.1578  87.1349 0004086  76.8962 283.2498 15.36803535336568
STARLINK-1373,45544,53.0463,0.0003877,15.68369104,360.95285658729426,366.18037357042704,1 45544U 20025P   26148.03567029  .00065552  00000+0  57213-3 0  9997,2 45544  53.0463  62.7347 0003877  53.0384 307.0986 15.68369104337720
STARLINK-1327,45555,53.0427,0.0004905,15.65955505,367.1819357981467,373.80234098290657,1 45555U 20025AA  26147.93312416  .00054750  00000+0  52831-3 0  9994,2 45555  53.0427  40.2076 0004905  54.2783 305.8688 15.65955505338023
STARLINK-1356,45564,53.0444,0.0001261,15.58314127,391.6821671187572,393.38973083648943,1 45564U 20025AK  26148.83337963  .01193626  00000+0  14100-1 0  9990,2 45564  53.0444  48.7263 0001261  86.8007 292.1695 15.58314127  5865
STARLINK-1357,45565,53.0465,0.0006804,15.68119344,359.6949041185144,368.86998850105374,1 45565U 20025AL  26148.76756889  .00067529  00000+0  59467-3 0  9993,2 45565  53.0465   6.1487 0006804  93.0393 267.1401 15.68119344338581
STARLINK-1361,45567,53.0441,9.39e-05,15.60418569,385.81192109892345,387.08230999582247,1 45567U 20025AN  26148.81118860  .00102673  00000+0  12180-2 0  9992,2 45567  53.0441  46.9639 0000939  96.6240 263.4879 15.60418569338010
STARLINK-1363,45568,53.0263,0.0009424,16.17590461,219.87829202580542,232.3259619323362,1 45568U 20025AP  26148.98621993  .01051750  78868-3  64236-3 0  9998,2 45568  53.0263 348.1925 0009424 282.4627  77.5355 16.17590461338838
STARLINK-1366,45569,53.0322,0.0006353,16.05826556,254.10079559540463,262.5330739649353,1 45569U 20025AQ  26148.78893816  .00562292  16338-3  75952-3 0  9990,2 45569  53.0322 351.9476 0006353 275.9439  84.0869 16.05826556338763
STARLINK-1376,45570,53.1579,0.0005278,15.37119577,451.0256688286081,458.23833978955554,1 45570U 20025AR  26148.48071562  .00056137  00000+0  15215-2 0  9991,2 45570  53.1579  65.1841 0005278  77.2720 282.8873 15.37119577337743
STARLINK-1320,45572,53.0429,0.0005855,15.83477746,316.6923481571457,324.53658612516756,1 45572U 20025AT  26148.83337963  .00224454  00000+0  98347-3 0  9999,2 45572  53.0429 306.0578 0005855 294.3658 341.7765 15.83477746  5872
STARLINK-1321,45573,53.0436,0.0003993,15.61358292,381.0325956829838,386.43262475370466,1 45573U 20025AU  26148.82690670  .00111815  00000+0  12772-2 0  9999,2 45573  53.0436  30.8567 0003993  99.9028 260.2435 15.61358292337936
STARLINK-1331,45578,53.0473,0.0004937,15.61199624,380.85218993046055,387.52931235193773,1 45578U 20025AZ  26148.84903194  .00101513  00000+0  11685-2 0  9990,2 45578  53.0473  37.6315 0004937  75.9283 284.2278 15.61199624338152
STARLINK-1333,45580,53.1582,0.0003306,15.34165525,461.1384258684493,465.66205029026787,1 45580U 20025BB  26148.50800610  .00082778  00000+0  24521-2 0  9999,2 45580  53.1582  66.3449 0003306  94.9384 265.1996 15.34165525337737
STARLINK-1335,45581,53.1555,0.0004159,15.3565292,456.1382723659335,461.82538780879986,1 45581U 20025BC  26148.80886955  .00048235  00000+0  13735-2 0  9994,2 45581  53.1555  61.7820 0004159  91.8592 268.2887 15.35652920337817
STARLINK-1337,45582,53.0473,0.0006359,15.72708496,346.8806785852112,355.43899830434475,1 45582U 20025BD  26148.84508721  .00083284  00000+0  60379-3 0  9991,2 45582  53.0473  27.8353 0006359  79.4115 280.7618 15.72708496338270
STARLINK-1347,45586,53.0393,0.0003849,15.67261906,364.14527204982824,369.33747942347054,1 45586U 20025BH  26148.79909622  .00068825  00000+0  62785-3 0  9991,2 45586  53.0393 358.1400 0003849 108.2124 251.9311 15.67261906338689
STARLINK-1364,45589,53.044,0.0001769,15.68131612,363.05455306820386,365.44000862676785,1 45589U 20025BL  26148.83337963 -.00040410  00000+0 -35255-3 0  9996,2 45589  53.0440  34.7219 0001769 105.9098  16.1574 15.68131612  5935
STARLINK-1365,45590,53.0467,0.0004486,15.57132208,392.9227768913461,399.00049818894604,1 45590U 20025BM  26148.48190979  .00097280  00000+0  13073-2 0  9991,2 45590  53.0467  69.7983 0004486  59.4897 300.6556 15.57132208337671
STARLINK-1443,45660,53.1336,0.0003989,15.31404857,468.8875744052193,474.35231049390586,1 45660U 20035D   26148.02862368  .00043155  00000+0  14070-2 0  9998,2 45660  53.1336  57.1183 0003989  68.8253 291.3174 15.31404857330898
STARLINK-1446,45663,53.0231,0.0003511,15.46810821,423.6735699900737,428.4514788961378,1 45663U 20035G   26148.77636973  .00039275  00000+0  77491-3 0  9999,2 45663  53.0231 337.8532 0003511 141.7114 218.4142 15.46810821332051
STARLINK-1448,45665,53.045,0.0006227,15.66905305,363.56401035447016,371.9653563108932,1 45665U 20035J   26148.83223147  .00066431  00000+0  61483-3 0  9991,2 45665  53.0450  22.0039 0006227  74.0593 286.1108 15.66905305331436
STARLINK-1451,45668,53.0532,0.0002824,15.13657479,523.1078890129411,527.00681318244,1 45668U 20035M   26148.79439156  .00028583  00000+0  15815-2 0  9991,2 45668  53.0532  63.3103 0002824  85.0410 275.0905 15.13657479330865
STARLINK-1452,45669,53.0269,0.000155,15.56716577,396.1171655190574,398.2175098637408,1 45669U 20035N   26148.77882219  .00100265  00000+0  13681-2 0  9999,2 45669  53.0269 356.6872 0001550 265.6337  94.4497 15.56716577331797
STARLINK-1453,45670,53.0409,0.0001824,15.67225423,365.615765173804,368.0763349904737,1 45670U 20035P   26148.80265255  .00077157  00000+0  70373-3 0  9995,2 45670  53.0409 342.4737 0001824 172.8257 187.2784 15.67225423331889
STARLINK-1454,45671,53.0445,0.0002636,15.65427061,370.2314784921309,373.79015642149534,1 45671U 20035Q   26148.82720825  .00064248  00000+0  63174-3 0  9995,2 45671  53.0445  23.1468 0002636  51.6377 308.4874 15.65427061331419
STARLINK-1456,45673,53.0426,0.0005121,15.64244046,371.95525429584995,378.8722409715765,1 45673U 20035S   26148.78806396  .00117716  00000+0  12000-2 0  9990,2 45673  53.0426  17.8427 0005121 121.9129 238.2384 15.64244046331508
STARLINK-1458,45675,53.0478,0.0004121,15.54719364,400.17403270695013,405.76301988172145,1 45675U 20035U   26147.91787591  .00093618  00000+0  13763-2 0  9992,2 45675  53.0478  35.9829 0004121  67.8064 292.3383 15.54719364331137
STARLINK-1460,45676,53.1576,0.0004027,15.33946552,461.29596598133776,466.8066644504115,1 45676U 20035V   26148.15658074  .00052099  00000+0  15644-2 0  9991,2 45676  53.1576  55.1621 0004027 112.8083 247.3345 15.33946552330897
STARLINK-1392,45677,53.1552,0.000311,15.37139111,452.4491437029192,456.69909001760607,1 45677U 20035W   26148.45717659  .00052503  00000+0  14238-2 0  9998,2 45677  53.1552  52.6367 0003110 113.9740 246.1589 15.37139111330992
STARLINK-1394,45679,53.0419,0.0006002,15.638195,372.5817810334047,380.6902105375466,1 45679U 20035Y   26148.78906207  .00112279  00000+0  11647-2 0  9993,2 45679  53.0419   8.0982 0006002 125.6743 234.4830 15.63819500331636
STARLINK-1402,45685,53.042,0.0005912,15.56671657,393.29204085182573,401.3033148148952,1 45685U 20035AE  26148.81205933  .00053669  00000+0  74052-3 0  9999,2 45685  53.0420 358.2626 0005912 148.3718 211.7649 15.56671657331786
STARLINK-1404,45686,53.1581,0.0004674,15.4305198,433.92251875393504,440.29340974651586,1 45686U 20035AF  26147.90923838  .00060657  00000+0  13510-2 0  9996,2 45686  53.1581  37.3249 0004674 126.0750 234.0690 15.43051980331168
STARLINK-1413,45689,53.158,0.00041,15.33747648,461.8373152950335,467.4483947761637,1 45689U 20035AJ  26148.39079457 -.00046725  00000+0 -14088-2 0  9995,2 45689  53.1580  38.7100 0004100 141.3100 218.8196 15.33747648331101
STARLINK-1417,45693,53.0495,0.0005967,15.16176448,513.294701731169,521.5238466547908,1 45693U 20035AN  26148.11957435  .00027535  00000+0  14195-2 0  9996,2 45693  53.0495  53.2346 0005967 103.5288 256.6371 15.16176448330933
